NORAD_CAT_ID,OBJECT_NAME,OBJECT_TYPE,EPOCH,MEAN_MOTION,ECCENTRICITY,INCLINATION,RA_OF_ASC_NODE,ARG_OF_PERICENTER,MEAN_ANOMALY,BSTAR,MEAN_MOTION_DOT,MEAN_MOTION_DDOT,TLE_LINE0,TLE_LINE1,TLE_LINE2,SEMIMAJOR_AXIS,PERIOD,APOGEE,PERIGEE,DECAYED
56489.0,STARLINK-5923,PAYLOAD,2024-03-10 13:10:27,14.98339538,0.0002834,70.0002,142.9065,266.5132,93.5703,-5.1369e-05,-7.06e-06,0.0,0 STARLINK-5923,1 56489U 23064AT  24070.54893005 -.00000706  00000-0 -51369-4 0  9997,2 56489  70.0002 142.9065 0002834 266.5132  93.5703 14.98339538 47373,6950.163,96.106,573.998,570.059,0.0
56489.0,STARLINK-5923,PAYLOAD,2024-03-11 05:11:49,14.98319684,0.0003295,69.9997,141.2228,267.7636,92.3146,-0.00023609,-2.908e-05,0.0,0 STARLINK-5923,1 56489U 23064AT  24071.21655027 -.00002908  00000-0 -23609-3 0  9993,2 56489  69.9997 141.2228 0003295 267.7636  92.3146 14.98319684 47479,6950.225,96.108,574.38,569.8,0.0
56489.0,STARLINK-5923,PAYLOAD,2024-03-11 11:36:23,14.98305123,0.0002992,69.9997,140.55,268.9924,91.0892,-0.0001248,-1.581e-05,0.0,0 STARLINK-5923,1 56489U 23064AT  24071.48360141 -.00001581  00000-0 -12480-3 0  9993,2 56489  69.9997 140.5500 0002992 268.9924  91.0892 14.98305123 47512,6950.27,96.109,574.214,570.055,0.0
56489.0,STARLINK-5923,PAYLOAD,2024-03-11 21:13:10,14.98322004,0.0003291,69.9993,139.5403,265.1515,94.9269,-2.7087e-05,-4.16e-06,0.0,0 STARLINK-5923,1 56489U 23064AT  24071.88415149 -.00000416  00000-0 -27087-4 0  9992,2 56489  69.9993 139.5403 0003291 265.1515  94.9269 14.98322004 47579,6950.218,96.108,574.37,569.795,0.0
56489.0,STARLINK-5923,PAYLOAD,2024-03-12 11:38:22,14.98336303,0.0003005,69.9998,138.0261,265.295,94.7866,6.3468e-05,6.64e-06,0.0,0 STARLINK-5923,1 56489U 23064AT  24072.48498091  .00000664  00000-0  63468-4 0  9992,2 56489  69.9998 138.0261 0003005 265.2950  94.7866 14.98336303 47665,6950.173,96.107,574.127,569.95,0.0
56489.0,STARLINK-5923,PAYLOAD,2024-03-12 21:15:10,14.98338856,0.0002936,70.0002,137.0162,266.9806,93.1017,9.1469e-05,9.99e-06,0.0,0 STARLINK-5923,1 56489U 23064AT  24072.88553748  .00000999  00000-0  91469-4 0  9990,2 56489  70.0002 137.0162 0002936 266.9806  93.1017 14.98338856 47366,6950.166,96.106,574.071,569.99,0.0
56489.0,STARLINK-5923,PAYLOAD,2024-03-13 11:40:22,14.98333517,0.0002925,70.0001,135.5003,264.2896,95.793,0.0003438,4.012e-05,0.0,0 STARLINK-5923,1 56489U 23064AT  24073.48637375  .00004012  00000-0  34380-3 0  9994,2 56489  70.0001 135.5003 0002925 264.2896  95.7930 14.98333517 47811,6950.182,96.107,574.08,570.014,0.0
56489.0,STARLINK-5923,PAYLOAD,2024-03-13 21:17:14,14.98306817,0.0002882,69.9997,134.4894,286.3184,73.7658,-0.00032973,-4.023e-05,0.0,0 STARLINK-5923,1 56489U 23064AT  24073.88697402 -.00004023  00000-0 -32973-3 0  9995,2 56489  69.9997 134.4894 0002882 286.3184  73.7658 14.98306817 47518,6950.265,96.108,574.133,570.127,0.0
56489.0,STARLINK-5923,PAYLOAD,2024-03-14 05:17:54,14.98317974,0.0002953,69.9995,133.6493,264.9134,95.1688,-0.00023393,-2.882e-05,0.0,0 STARLINK-5923,1 56489U 23064AT  24074.22077102 -.00002882  00000-0 -23393-3 0  9990,2 56489  69.9995 133.6493 0002953 264.9134  95.1688 14.98317974 47920,6950.23,96.108,574.147,570.043,0.0
56489.0,STARLINK-5923,PAYLOAD,2024-03-14 06:54:02,14.98318451,0.0002643,69.9999,133.4806,256.2163,103.8702,-0.0002446,-3.009e-05,0.0,0 STARLINK-5923,1 56489U 23064AT  24074.28753141 -.00003009  00000-0 -24460-3 0  9998,2 56489  69.9999 133.4806 0002643 256.2163 103.8702 14.98318451 47578,6950.229,96.108,573.931,570.257,0.0
56489.0,STARLINK-5923,PAYLOAD,2024-03-14 11:42:26,14.9832786,0.000288,69.9996,132.9747,262.64,97.4432,-0.00016534,-2.065e-05,0.0,0 STARLINK-5923,1 56489U 23064AT  24074.48780449 -.00002065  00000-0 -16534-3 0  9995,2 56489  69.9996 132.9747 0002880 262.6400  97.4432 14.98327860 47966,6950.2,96.107,574.066,570.063,0.0
56489.0,STARLINK-5923,PAYLOAD,2024-03-15 05:19:53,14.98334612,0.0003101,70.0002,131.1228,263.3457,96.735,0.00010704,1.185e-05,0.0,0 STARLINK-5923,1 56489U 23064AT  24075.22215110  .00001185  00000-0  10704-3 0  9999,2 56489  70.0002 131.1228 0003101 263.3457  96.7350 14.98334612 48076,6950.179,96.107,574.199,569.888,0.0
56489.0,STARLINK-5923,PAYLOAD,2024-03-15 11:44:25,14.98342314,0.0003042,69.9996,130.4513,268.5018,91.5792,2.16e-05,1.65e-06,0.0,0 STARLINK-5923,1 56489U 23064AT  24075.48918845  .00000165  00000-0  21600-4 0  9997,2 56489  69.9996 130.4513 0003042 268.5018  91.5792 14.98342314 47753,6950.155,96.106,574.134,569.906,0.0
56489.0,STARLINK-5923,PAYLOAD,2024-03-16 05:21:54,14.98318698,0.0003379,69.9995,128.5986,276.7735,83.3039,0.00069879,8.252e-05,0.0,0 STARLINK-5923,1 56489U 23064AT  24076.22354301  .00008252  00000-0  69879-3 0  9995,2 56489  69.9995 128.5986 0003379 276.7735  83.3039 14.98318698 48228,6950.228,96.108,574.441,569.744,0.0
56489.0,STARLINK-5923,PAYLOAD,2024-03-16 11:46:25,14.98346333,0.0003036,69.9995,127.9264,267.8977,92.1835,0.00034063,3.975e-05,0.0,0 STARLINK-5923,1 56489U 23064AT  24076.49057461  .00003975  00000-0  34063-3 0  9995,2 56489  69.9995 127.9264 0003036 267.8977  92.1835 14.98346333 48262,6950.142,96.106,574.117,569.897,0.0
56489.0,STARLINK-5923,PAYLOAD,2024-03-16 13:22:33,14.98345215,0.0002788,69.9997,127.7581,270.9928,89.0912,0.00033519,3.91e-05,0.0,0 STARLINK-5923,1 56489U 23064AT  24076.55733528  .00003910  00000-0  33519-3 0  9991,2 56489  69.9997 127.7581 0002788 270.9928  89.0912 14.98345215 47918,6950.146,96.106,573.949,570.073,0.0
56489.0,STARLINK-5923,PAYLOAD,2024-03-17 05:23:54,14.98343059,0.0002923,70.0,126.0769,268.6271,91.4553,-7.1077e-05,-9.41e-06,0.0,0 STARLINK-5923,1 56489U 23064AT  24077.22494049 -.00000941  00000-0 -71077-4 0  9993,2 56489  70.0000 126.0769 0002923 268.6271  91.4553 14.98343059 48375,6950.153,96.106,574.049,569.986,0.0
56489.0,STARLINK-5923,PAYLOAD,2024-03-17 11:48:27,14.98331175,0.0002788,69.9999,125.4019,265.5223,94.5618,-0.00018982,-2.357e-05,0.0,0 STARLINK-5923,1 56489U 23064AT  24077.49198910 -.00002357  00000-0 -18982-3 0  9998,2 56489  69.9999 125.4019 0002788 265.5223  94.5618 14.98331175 48419,6950.189,96.107,573.992,570.117,0.0
56489.0,STARLINK-5923,PAYLOAD,2024-03-17 13:24:36,14.98329755,0.0002659,69.9994,125.2319,267.6181,92.4674,-0.00022324,-2.756e-05,0.0,0 STARLINK-5923,1 56489U 23064AT  24077.55875128 -.00002756  00000-0 -22324-3 0  9996,2 56489  69.9994 125.2319 0002659 267.6181  92.4674 14.98329755 48069,6950.194,96.107,573.907,570.211,0.0
56489.0,STARLINK-5923,PAYLOAD,2024-03-18 05:25:56,14.98376763,0.0002762,69.9982,123.5502,267.7322,92.352,-0.0010008,-0.00012028,0.0,0 STARLINK-5923,1 56489U 23064AT  24078.22634478 -.00012028  00000-0 -10008-2 0  9990,2 56489  69.9982 123.5502 0002762 267.7322  92.3520 14.98376763 48525,6950.048,96.104,573.833,569.994,0.0
56489.0,STARLINK-5923,PAYLOAD,2024-03-18 11:50:27,14.98374099,0.0002656,69.9984,122.8766,269.3371,90.7484,-0.00082274,-9.907e-05,0.0,0 STARLINK-5923,1 56489U 23064AT  24078.49337514 -.00009907  00000-0 -82274-3 0  9997,2 56489  69.9984 122.8766 0002656 269.3371  90.7484 14.98374099 48201,6950.057,96.104,573.767,570.076,0.0
56489.0,STARLINK-5923,PAYLOAD,2024-03-19 02:15:40,14.98325343,0.0003056,69.9987,121.3617,270.5922,89.4887,9.7894e-05,1.075e-05,0.0,0 STARLINK-5923,1 56489U 23064AT  24079.09422006  .00001075  00000-0  97894-4 0  9996,2 56489  69.9987 121.3617 0003056 270.5922  89.4887 14.98325343 48653,6950.207,96.107,574.196,569.948,0.0
56489.0,STARLINK-5923,PAYLOAD,2024-03-19 11:52:28,14.98335165,0.0002685,69.9992,120.3524,260.8886,99.1969,8.4825e-05,9.19e-06,0.0,0 STARLINK-5923,1 56489U 23064AT  24079.49477455  .00000919  00000-0  84825-4 0  9994,2 56489  69.9992 120.3524 0002685 260.8886  99.1969 14.98335165 48712,6950.177,96.107,573.908,570.176,0.0
56489.0,STARLINK-5923,PAYLOAD,2024-03-20 11:54:29,14.98337321,0.0002748,69.9995,117.828,263.8438,96.2408,0.00014802,1.674e-05,0.0,0 STARLINK-5923,1 56489U 23064AT  24080.49616925  .00001674  00000-0  14802-3 0  9999,2 56489  69.9995 117.8280 0002748 263.8438  96.2408 14.98337321 48500,6950.17,96.107,573.945,570.125,0.0
56489.0,STARLINK-5923,PAYLOAD,2024-03-21 05:31:58,14.9833125,0.0002668,70.0006,115.9784,254.8552,105.2312,-2.4586e-05,-3.86e-06,0.0,0 STARLINK-5923,1 56489U 23064AT  24081.23053491 -.00000386  00000-0 -24586-4 0  9997,2 56489  70.0006 115.9784 0002668 254.8552 105.2312 14.98331250 48973,6950.189,96.107,573.908,570.2,0.0
56489.0,STARLINK-5923,PAYLOAD,2024-03-21 11:56:30,14.98333909,0.0002856,69.9992,115.3026,261.2162,98.8673,-5.2814e-05,-7.23e-06,0.0,0 STARLINK-5923,1 56489U 23064AT  24081.49757318 -.00000723  00000-0 -52814-4 0  9994,2 56489  69.9992 115.3026 0002856 261.2162  98.8673 14.98333909 48650,6950.181,96.107,574.031,570.061,0.0
56489.0,STARLINK-5923,PAYLOAD,2024-03-22 03:57:50,14.98337626,0.0002745,69.9995,113.6197,258.4416,101.6435,-4.8895e-05,-6.76e-06,0.0,0 STARLINK-5923,1 56489U 23064AT  24082.16516790 -.00000676  00000-0 -48895-4 0  9997,2 56489  69.9995 113.6197 0002745 258.4416 101.6435 14.98337626 49111,6950.169,96.107,573.942,570.126,0.0
56489.0,STARLINK-5923,PAYLOAD,2024-03-22 11:58:30,14.98336665,0.0002762,69.9994,112.778,259.8245,100.2603,-5.2437e-05,-7.19e-06,0.0,0 STARLINK-5923,1 56489U 23064AT  24082.49896723 -.00000719  00000-0 -52437-4 0  9995,2 56489  69.9994 112.7780 0002762 259.8245 100.2603 14.98336665 48801,6950.172,96.107,573.957,570.118,0.0
56489.0,STARLINK-5923,PAYLOAD,2024-03-23 05:36:00,14.98324517,0.0002795,69.9992,110.9261,258.6322,101.4523,-8.9106e-06,-1.99e-06,0.0,0 STARLINK-5923,1 56489U 23064AT  24083.23333344 -.00000199  00000-0 -89106-5 0  9999,2 56489  69.9992 110.9261 0002795 258.6322 101.4523 14.98324517 49271,6950.21,96.107,574.017,570.132,0.0
56489.0,STARLINK-5923,PAYLOAD,2024-03-23 18:25:04,14.98325921,0.0002633,69.9995,109.5792,261.0993,98.9868,4.1116e-05,3.98e-06,0.0,0 STARLINK-5923,1 56489U 23064AT  24083.76741340  .00000398  00000-0  41116-4 0  9993,2 56489  69.9995 109.5792 0002633 261.0993  98.9868 14.98325921 48990,6950.206,96.107,573.9,570.241,0.0
